[{"OBJECT_NAME":"ONEWEB-0714","OBJECT_ID":"2022-166AR","EPOCH":"2025-08-25T04:50:16.588896","MEAN_MOTION":13.21828727,"ECCENTRICITY":0.00022216,"INCLINATION":87.9246,"RA_OF_ASC_NODE":303.0474,"ARG_OF_PERICENTER":94.9138,"MEAN_ANOMALY":265.225,"EPHEMERIS_TYPE":0,"CLASSIFICATION_TYPE":"U","NORAD_CAT_ID":54681,"ELEMENT_SET_NO":999,"REV_AT_EPOCH":13243,"BSTAR":0.00034261774,"MEAN_MOTION_DOT":1.55e-6,"MEAN_MOTION_DDOT":0},{"OBJECT_NAME":"ONEWEB-0532","OBJECT_ID":"2023-004A","EPOCH":"2025-08-25T13:34:37.974720","MEAN_MOTION":13.17645993,"ECCENTRICITY":0.00019064,"INCLINATION":87.9031,"RA_OF_ASC_NODE":64.675,"ARG_OF_PERICENTER":102.4975,"MEAN_ANOMALY":257.637,"EPHEMERIS_TYPE":0,"CLASSIFICATION_TYPE":"U","NORAD_CAT_ID":55140,"ELEMENT_SET_NO":999,"REV_AT_EPOCH":12865,"BSTAR":4.7921796e-5,"MEAN_MOTION_DOT":3.2e-7,"MEAN_MOTION_DDOT":0},{"OBJECT_NAME":"ONEWEB-0533","OBJECT_ID":"2023-004B","EPOCH":"2025-08-25T12:06:50.787936","MEAN_MOTION":13.12442786,"ECCENTRICITY":0.00019493,"INCLINATION":87.8872,"RA_OF_ASC_NODE":49.4215,"ARG_OF_PERICENTER":88.2193,"MEAN_ANOMALY":271.9158,"EPHEMERIS_TYPE":0,"CLASSIFICATION_TYPE":"U","NORAD_CAT_ID":55141,"ELEMENT_SET_NO":999,"REV_AT_EPOCH":12927,"BSTAR":-0.0011180699,"MEAN_MOTION_DOT":-3.89e-6,"MEAN_MOTION_DDOT":0},{"OBJECT_NAME":"ONEWEB-0541","OBJECT_ID":"2023-004C","EPOCH":"2025-08-25T14:36:24.052608","MEAN_MOTION":13.11416883,"ECCENTRICITY":0.00018717,"INCLINATION":87.8785,"RA_OF_ASC_NODE":79.9474,"ARG_OF_PERICENTER":89.4508,"MEAN_ANOMALY":270.6835,"EPHEMERIS_TYPE":0,"CLASSIFICATION_TYPE":"U","NORAD_CAT_ID":55142,"ELEMENT_SET_NO":999,"REV_AT_EPOCH":12720,"BSTAR":0.00064699156,"MEAN_MOTION_DOT":2.42e-6,"MEAN_MOTION_DDOT":0},{"OBJECT_NAME":"ONEWEB-0543","OBJECT_ID":"2023-004D","EPOCH":"2025-08-25T11:21:15.159168","MEAN_MOTION":13.18685761,"ECCENTRICITY":0.00018408,"INCLINATION":87.9141,"RA_OF_ASC_NODE":34.2395,"ARG_OF_PERICENTER":85.1005,"MEAN_ANOMALY":275.0338,"EPHEMERIS_TYPE":0,"CLASSIFICATION_TYPE":"U","NORAD_CAT_ID":55143,"ELEMENT_SET_NO":999,"REV_AT_EPOCH":13072,"BSTAR":0.00018358831,"MEAN_MOTION_DOT":8.5e-7,"MEAN_MOTION_DDOT":0},{"OBJECT_NAME":"ONEWEB-0544","OBJECT_ID":"2023-004E","EPOCH":"2025-08-25T11:11:44.710080","MEAN_MOTION":13.18686246,"ECCENTRICITY":0.00016158,"INCLINATION":87.9141,"RA_OF_ASC_NODE":34.2309,"ARG_OF_PERICENTER":88.9912,"MEAN_ANOMALY":271.1406,"EPHEMERIS_TYPE":0,"CLASSIFICATION_TYPE":"U","NORAD_CAT_ID":55144,"ELEMENT_SET_NO":999,"REV_AT_EPOCH":13072,"BSTAR":9.4109242e-5,"MEAN_MOTION_DOT":5.0e-7,"MEAN_MOTION_DDOT":0},{"OBJECT_NAME":"ONEWEB-0560","OBJECT_ID":"2023-004F","EPOCH":"2025-08-25T11:02:15.204480","MEAN_MOTION":13.18686477,"ECCENTRICITY":0.00015291,"INCLINATION":87.9148,"RA_OF_ASC_NODE":34.2094,"ARG_OF_PERICENTER":88.0503,"MEAN_ANOMALY":272.0804,"EPHEMERIS_TYPE":0,"CLASSIFICATION_TYPE":"U","NORAD_CAT_ID":55145,"ELEMENT_SET_NO":999,"REV_AT_EPOCH":13073,"BSTAR":3.2781341e-5,"MEAN_MOTION_DOT":2.6e-7,"MEAN_MOTION_DDOT":0},{"OBJECT_NAME":"ONEWEB-0565","OBJECT_ID":"2023-004G","EPOCH":"2025-08-25T10:52:43.419648","MEAN_MOTION":13.18686176,"ECCENTRICITY":0.00013883,"INCLINATION":87.914,"RA_OF_ASC_NODE":34.2661,"ARG_OF_PERICENTER":108.3888,"MEAN_ANOMALY":251.7395,"EPHEMERIS_TYPE":0,"CLASSIFICATION_TYPE":"U","NORAD_CAT_ID":55146,"ELEMENT_SET_NO":999,"REV_AT_EPOCH":13072,"BSTAR":0.00012929606,"MEAN_MOTION_DOT":6.4e-7,"MEAN_MOTION_DDOT":0},{"OBJECT_NAME":"ONEWEB-0567","OBJECT_ID":"2023-004H","EPOCH":"2025-08-25T10:43:13.620288","MEAN_MOTION":13.1868584,"ECCENTRICITY":0.00013685,"INCLINATION":87.9146,"RA_OF_ASC_NODE":34.2264,"ARG_OF_PERICENTER":97.9696,"MEAN_ANOMALY":262.1591,"EPHEMERIS_TYPE":0,"CLASSIFICATION_TYPE":"U","NORAD_CAT_ID":55147,"ELEMENT_SET_NO":999,"REV_AT_EPOCH":13072,"BSTAR":-5.6425013e-5,"MEAN_MOTION_DOT":-9.0e-8,"MEAN_MOTION_DDOT":0},{"OBJECT_NAME":"ONEWEB-0569","OBJECT_ID":"2023-004J","EPOCH":"2025-08-25T10:32:14.746848","MEAN_MOTION":13.13470374,"ECCENTRICITY":8.433e-5,"INCLINATION":87.9008,"RA_OF_ASC_NODE":18.9518,"ARG_OF_PERICENTER":81.9208,"MEAN_ANOMALY":278.2017,"EPHEMERIS_TYPE":0,"CLASSIFICATION_TYPE":"U","NORAD_CAT_ID":55148,"ELEMENT_SET_NO":999,"REV_AT_EPOCH":13135,"BSTAR":-0.00012268959,"MEAN_MOTION_DOT":-3.2e-7,"MEAN_MOTION_DDOT":0},{"OBJECT_NAME":"ONEWEB-0570","OBJECT_ID":"2023-004K","EPOCH":"2025-08-25T12:18:15.604704","MEAN_MOTION":13.18686328,"ECCENTRICITY":0.00018705,"INCLINATION":87.9143,"RA_OF_ASC_NODE":34.2147,"ARG_OF_PERICENTER":112.7091,"MEAN_ANOMALY":247.4239,"EPHEMERIS_TYPE":0,"CLASSIFICATION_TYPE":"U","NORAD_CAT_ID":55149,"ELEMENT_SET_NO":999,"REV_AT_EPOCH":13072,"BSTAR":2.4980324e-5,"MEAN_MOTION_DOT":2.3e-7,"MEAN_MOTION_DDOT":0},{"OBJECT_NAME":"ONEWEB-0571","OBJECT_ID":"2023-004L","EPOCH":"2025-08-25T12:08:45.744000","MEAN_MOTION":13.18686719,"ECCENTRICITY":7.213e-5,"INCLINATION":87.914,"RA_OF_ASC_NODE":34.2215,"ARG_OF_PERICENTER":131.144,"MEAN_ANOMALY":228.9755,"EPHEMERIS_TYPE":0,"CLASSIFICATION_TYPE":"U","NORAD_CAT_ID":55150,"ELEMENT_SET_NO":999,"REV_AT_EPOCH":13073,"BSTAR":4.0815357e-5,"MEAN_MOTION_DOT":2.9e-7,"MEAN_MOTION_DDOT":0},{"OBJECT_NAME":"ONEWEB-0572","OBJECT_ID":"2023-004M","EPOCH":"2025-08-25T12:29:01.191552","MEAN_MOTION":13.17650341,"ECCENTRICITY":0.00016554,"INCLINATION":87.9034,"RA_OF_ASC_NODE":64.6932,"ARG_OF_PERICENTER":94.6056,"MEAN_ANOMALY":265.5264,"EPHEMERIS_TYPE":0,"CLASSIFICATION_TYPE":"U","NORAD_CAT_ID":55151,"ELEMENT_SET_NO":999,"REV_AT_EPOCH":12854,"BSTAR":0.00018108729,"MEAN_MOTION_DOT":8.3e-7,"MEAN_MOTION_DDOT":0},{"OBJECT_NAME":"ONEWEB-0573","OBJECT_ID":"2023-004N","EPOCH":"2025-08-25T11:59:14.318592","MEAN_MOTION":13.18659089,"ECCENTRICITY":0.00012105,"INCLINATION":87.9139,"RA_OF_ASC_NODE":34.2296,"ARG_OF_PERICENTER":163.7286,"MEAN_ANOMALY":196.3885,"EPHEMERIS_TYPE":0,"CLASSIFICATION_TYPE":"U","NORAD_CAT_ID":55152,"ELEMENT_SET_NO":999,"REV_AT_EPOCH":13072,"BSTAR":0.013760804,"MEAN_MOTION_DOT":5.439e-5,"MEAN_MOTION_DDOT":0},{"OBJECT_NAME":"ONEWEB-0588","OBJECT_ID":"2023-004P","EPOCH":"2025-08-25T11:49:44.440608","MEAN_MOTION":13.18687585,"ECCENTRICITY":0.00017248,"INCLINATION":87.9145,"RA_OF_ASC_NODE":34.2163,"ARG_OF_PERICENTER":109.8123,"MEAN_ANOMALY":250.3196,"EPHEMERIS_TYPE":0,"CLASSIFICATION_TYPE":"U","NORAD_CAT_ID":55153,"ELEMENT_SET_NO":999,"REV_AT_EPOCH":13072,"BSTAR":-7.7074561e-5,"MEAN_MOTION_DOT":-1.7e-7,"MEAN_MOTION_DDOT":0},{"OBJECT_NAME":"ONEWEB-0598","OBJECT_ID":"2023-004Q","EPOCH":"2025-08-25T12:14:46.940928","MEAN_MOTION":13.11416326,"ECCENTRICITY":0.00010917,"INCLINATION":87.8772,"RA_OF_ASC_NODE":80.0017,"ARG_OF_PERICENTER":80.6705,"MEAN_ANOMALY":279.4546,"EPHEMERIS_TYPE":0,"CLASSIFICATION_TYPE":"U","NORAD_CAT_ID":55154,"ELEMENT_SET_NO":999,"REV_AT_EPOCH":12714,"BSTAR":-0.0013085575,"MEAN_MOTION_DOT":-4.51e-6,"MEAN_MOTION_DDOT":0},{"OBJECT_NAME":"ONEWEB-0599","OBJECT_ID":"2023-004R","EPOCH":"2025-08-25T13:22:26.514048","MEAN_MOTION":13.17649343,"ECCENTRICITY":0.00016404,"INCLINATION":87.9031,"RA_OF_ASC_NODE":64.6897,"ARG_OF_PERICENTER":84.3708,"MEAN_ANOMALY":275.7611,"EPHEMERIS_TYPE":0,"CLASSIFICATION_TYPE":"U","NORAD_CAT_ID":55155,"ELEMENT_SET_NO":999,"REV_AT_EPOCH":12855,"BSTAR":-0.00057042718,"MEAN_MOTION_DOT":-2.09e-6,"MEAN_MOTION_DDOT":0}]
