ONEWEB-0714             
1 54681U 22166AR  25237.20158089  .00000155  00000+0  34262-3 0  9993
2 54681  87.9246 303.0474 0002221  94.9138 265.2250 13.21828727132430
ONEWEB-0532             
1 55140U 23004A   25237.56571730  .00000032  00000+0  47922-4 0  9999
2 55140  87.9031  64.6750 0001906 102.4975 257.6370 13.17645993128657
ONEWEB-0533             
1 55141U 23004B   25237.50475449 -.00000389  00000+0 -11181-2 0  9997
2 55141  87.8872  49.4215 0001949  88.2193 271.9158 13.12442786129279
ONEWEB-0541             
1 55142U 23004C   25237.60861172  .00000242  00000+0  64699-3 0  9990
2 55142  87.8785  79.9474 0001871  89.4508 270.6835 13.11416883127202
ONEWEB-0543             
1 55143U 23004D   25237.47309212  .00000085  00000+0  18359-3 0  9995
2 55143  87.9141  34.2395 0001840  85.1005 275.0338 13.18685761130725
ONEWEB-0544             
1 55144U 23004E   25237.46648970  .00000050  00000+0  94109-4 0  9992
2 55144  87.9141  34.2309 0001615  88.9912 271.1406 13.18686246130721
ONEWEB-0560             
1 55145U 23004F   25237.45989820  .00000026  00000+0  32781-4 0  9995
2 55145  87.9148  34.2094 0001529  88.0503 272.0804 13.18686477130730
ONEWEB-0565             
1 55146U 23004G   25237.45328032  .00000064  00000+0  12930-3 0  9993
2 55146  87.9140  34.2661 0001388 108.3888 251.7395 13.18686176130722
ONEWEB-0567             
1 55147U 23004H   25237.44668542 -.00000009  00000+0 -56425-4 0  9995
2 55147  87.9146  34.2264 0001368  97.9696 262.1591 13.18685840130727
ONEWEB-0569             
1 55148U 23004J   25237.43905957 -.00000032  00000+0 -12269-3 0  9992
2 55148  87.9008  18.9518 0000843  81.9208 278.2017 13.13470374131355
ONEWEB-0570             
1 55149U 23004K   25237.51268061  .00000023  00000+0  24980-4 0  9992
2 55149  87.9143  34.2147 0001870 112.7091 247.4239 13.18686328130726
ONEWEB-0571             
1 55150U 23004L   25237.50608500  .00000029  00000+0  40815-4 0  9990
2 55150  87.9140  34.2215 0000721 131.1440 228.9755 13.18686719130730
ONEWEB-0572             
1 55151U 23004M   25237.52015268  .00000083  00000+0  18109-3 0  9996
2 55151  87.9034  64.6932 0001655  94.6056 265.5264 13.17650341128548
ONEWEB-0573             
1 55152U 23004N   25237.49947128  .00005439  00000+0  13761-1 0  9999
2 55152  87.9139  34.2296 0001210 163.7286 196.3885 13.18659089130723
ONEWEB-0588             
1 55153U 23004P   25237.49287547 -.00000017  00000+0 -77075-4 0  9992
2 55153  87.9145  34.2163 0001724 109.8123 250.3196 13.18687585130723
ONEWEB-0598             
1 55154U 23004Q   25237.51026552 -.00000451  00000+0 -13086-2 0  9995
2 55154  87.8772  80.0017 0001091  80.6705 279.4546 13.11416326127144
ONEWEB-0599             
1 55155U 23004R   25237.55725132 -.00000209  00000+0 -57043-3 0  9993
2 55155  87.9031  64.6897 0001640  84.3708 275.7611 13.17649343128553
